{
  "type": "FeatureCollection",
  "features": [
    {
      "type": "Feature",
      "properties": {
        "hub": "CBD",
        "name": "CBD (시청)",
        "radius_km": 12,
        "note": "대중교통 40분 근사치 (직선거리 12km 원형 버퍼)"
      },
      "geometry": {
        "type": "Polygon",
        "coordinates": [
          [
            [
              127.11415,
              37.5665
            ],
            [
              127.113494,
              37.577078
            ],
            [
              127.111534,
              37.587554
            ],
            [
              127.108287,
              37.597827
            ],
            [
              127.103786,
              37.607799
            ],
            [
              127.098073,
              37.617372
            ],
            [
              127.091204,
              37.626456
            ],
            [
              127.083245,
              37.634963
            ],
            [
              127.074272,
              37.64281
            ],
            [
              127.064372,
              37.649922
            ],
            [
              127.053641,
              37.656231
            ],
            [
              127.042181,
              37.661676
            ],
            [
              127.030102,
              37.666204
            ],
            [
              127.017522,
              37.669772
            ],
            [
              127.004561,
              37.672345
            ],
            [
              126.991345,
              37.673899
            ],
            [
              126.978,
              37.674419
            ],
            [
              126.964655,
              37.673899
            ],
            [
              126.951439,
              37.672345
            ],
            [
              126.938478,
              37.669772
            ],
            [
              126.925898,
              37.666204
            ],
            [
              126.913819,
              37.661676
            ],
            [
              126.902359,
              37.656231
            ],
            [
              126.891628,
              37.649922
            ],
            [
              126.881728,
              37.64281
            ],
            [
              126.872755,
              37.634963
            ],
            [
              126.864796,
              37.626456
            ],
            [
              126.857927,
              37.617372
            ],
            [
              126.852214,
              37.607799
            ],
            [
              126.847713,
              37.597827
            ],
            [
              126.844466,
              37.587554
            ],
            [
              126.842506,
              37.577078
            ],
            [
              126.84185,
              37.5665
            ],
            [
              126.842506,
              37.555922
            ],
            [
              126.844466,
              37.545446
            ],
            [
              126.847713,
              37.535173
            ],
            [
              126.852214,
              37.525201
            ],
            [
              126.857927,
              37.515628
            ],
            [
              126.864796,
              37.506544
            ],
            [
              126.872755,
              37.498037
            ],
            [
              126.881728,
              37.49019
            ],
            [
              126.891628,
              37.483078
            ],
            [
              126.902359,
              37.476769
            ],
            [
              126.913819,
              37.471324
            ],
            [
              126.925898,
              37.466796
            ],
            [
              126.938478,
              37.463228
            ],
            [
              126.951439,
              37.460655
            ],
            [
              126.964655,
              37.459101
            ],
            [
              126.978,
              37.458581
            ],
            [
              126.991345,
              37.459101
            ],
            [
              127.004561,
              37.460655
            ],
            [
              127.017522,
              37.463228
            ],
            [
              127.030102,
              37.466796
            ],
            [
              127.042181,
              37.471324
            ],
            [
              127.053641,
              37.476769
            ],
            [
              127.064372,
              37.483078
            ],
            [
              127.074272,
              37.49019
            ],
            [
              127.083245,
              37.498037
            ],
            [
              127.091204,
              37.506544
            ],
            [
              127.098073,
              37.515628
            ],
            [
              127.103786,
              37.525201
            ],
            [
              127.108287,
              37.535173
            ],
            [
              127.111534,
              37.545446
            ],
            [
              127.113494,
              37.555922
            ],
            [
              127.11415,
              37.5665
            ]
          ]
        ]
      }
    },
    {
      "type": "Feature",
      "properties": {
        "hub": "GBD",
        "name": "GBD (강남)",
        "radius_km": 12,
        "note": "대중교통 40분 근사치 (직선거리 12km 원형 버퍼)"
      },
      "geometry": {
        "type": "Polygon",
        "coordinates": [
          [
            [
              127.163625,
              37.4979
            ],
            [
              127.16297,
              37.508478
            ],
            [
              127.161011,
              37.518954
            ],
            [
              127.157767,
              37.529227
            ],
            [
              127.15327,
              37.539199
            ],
            [
              127.147563,
              37.548772
            ],
            [
              127.1407,
              37.557856
            ],
            [
              127.132748,
              37.566363
            ],
            [
              127.123784,
              37.57421
            ],
            [
              127.113893,
              37.581322
            ],
            [
              127.103171,
              37.587631
            ],
            [
              127.091722,
              37.593076
            ],
            [
              127.079654,
              37.597604
            ],
            [
              127.067086,
              37.601172
            ],
            [
              127.054137,
              37.603745
            ],
            [
              127.040933,
              37.605299
            ],
            [
              127.0276,
              37.605819
            ],
            [
              127.014267,
              37.605299
            ],
            [
              127.001063,
              37.603745
            ],
            [
              126.988114,
              37.601172
            ],
            [
              126.975546,
              37.597604
            ],
            [
              126.963478,
              37.593076
            ],
            [
              126.952029,
              37.587631
            ],
            [
              126.941307,
              37.581322
            ],
            [
              126.931416,
              37.57421
            ],
            [
              126.922452,
              37.566363
            ],
            [
              126.9145,
              37.557856
            ],
            [
              126.907637,
              37.548772
            ],
            [
              126.90193,
              37.539199
            ],
            [
              126.897433,
              37.529227
            ],
            [
              126.894189,
              37.518954
            ],
            [
              126.89223,
              37.508478
            ],
            [
              126.891575,
              37.4979
            ],
            [
              126.89223,
              37.487322
            ],
            [
              126.894189,
              37.476846
            ],
            [
              126.897433,
              37.466573
            ],
            [
              126.90193,
              37.456601
            ],
            [
              126.907637,
              37.447028
            ],
            [
              126.9145,
              37.437944
            ],
            [
              126.922452,
              37.429437
            ],
            [
              126.931416,
              37.42159
            ],
            [
              126.941307,
              37.414478
            ],
            [
              126.952029,
              37.408169
            ],
            [
              126.963478,
              37.402724
            ],
            [
              126.975546,
              37.398196
            ],
            [
              126.988114,
              37.394628
            ],
            [
              127.001063,
              37.392055
            ],
            [
              127.014267,
              37.390501
            ],
            [
              127.0276,
              37.389981
            ],
            [
              127.040933,
              37.390501
            ],
            [
              127.054137,
              37.392055
            ],
            [
              127.067086,
              37.394628
            ],
            [
              127.079654,
              37.398196
            ],
            [
              127.091722,
              37.402724
            ],
            [
              127.103171,
              37.408169
            ],
            [
              127.113893,
              37.414478
            ],
            [
              127.123784,
              37.42159
            ],
            [
              127.132748,
              37.429437
            ],
            [
              127.1407,
              37.437944
            ],
            [
              127.147563,
              37.447028
            ],
            [
              127.15327,
              37.456601
            ],
            [
              127.157767,
              37.466573
            ],
            [
              127.161011,
              37.476846
            ],
            [
              127.16297,
              37.487322
            ],
            [
              127.163625,
              37.4979
            ]
          ]
        ]
      }
    },
    {
      "type": "Feature",
      "properties": {
        "hub": "YBD",
        "name": "YBD (여의도)",
        "radius_km": 12,
        "note": "대중교통 40분 근사치 (직선거리 12km 원형 버퍼)"
      },
      "geometry": {
        "type": "Polygon",
        "coordinates": [
          [
            [
              127.060568,
              37.5219
            ],
            [
              127.059913,
              37.532478
            ],
            [
              127.057954,
              37.542954
            ],
            [
              127.054709,
              37.553227
            ],
            [
              127.050211,
              37.563199
            ],
            [
              127.044502,
              37.572772
            ],
            [
              127.037637,
              37.581856
            ],
            [
              127.029682,
              37.590363
            ],
            [
              127.020715,
              37.59821
            ],
            [
              127.010821,
              37.605322
            ],
            [
              127.000096,
              37.611631
            ],
            [
              126.988642,
              37.617076
            ],
            [
              126.976571,
              37.621604
            ],
            [
              126.963999,
              37.625172
            ],
            [
              126.951046,
              37.627745
            ],
            [
              126.937837,
              37.629299
            ],
            [
              126.9245,
              37.629819
            ],
            [
              126.911163,
              37.629299
            ],
            [
              126.897954,
              37.627745
            ],
            [
              126.885001,
              37.625172
            ],
            [
              126.872429,
              37.621604
            ],
            [
              126.860358,
              37.617076
            ],
            [
              126.848904,
              37.611631
            ],
            [
              126.838179,
              37.605322
            ],
            [
              126.828285,
              37.59821
            ],
            [
              126.819318,
              37.590363
            ],
            [
              126.811363,
              37.581856
            ],
            [
              126.804498,
              37.572772
            ],
            [
              126.798789,
              37.563199
            ],
            [
              126.794291,
              37.553227
            ],
            [
              126.791046,
              37.542954
            ],
            [
              126.789087,
              37.532478
            ],
            [
              126.788432,
              37.5219
            ],
            [
              126.789087,
              37.511322
            ],
            [
              126.791046,
              37.500846
            ],
            [
              126.794291,
              37.490573
            ],
            [
              126.798789,
              37.480601
            ],
            [
              126.804498,
              37.471028
            ],
            [
              126.811363,
              37.461944
            ],
            [
              126.819318,
              37.453437
            ],
            [
              126.828285,
              37.44559
            ],
            [
              126.838179,
              37.438478
            ],
            [
              126.848904,
              37.432169
            ],
            [
              126.860358,
              37.426724
            ],
            [
              126.872429,
              37.422196
            ],
            [
              126.885001,
              37.418628
            ],
            [
              126.897954,
              37.416055
            ],
            [
              126.911163,
              37.414501
            ],
            [
              126.9245,
              37.413981
            ],
            [
              126.937837,
              37.414501
            ],
            [
              126.951046,
              37.416055
            ],
            [
              126.963999,
              37.418628
            ],
            [
              126.976571,
              37.422196
            ],
            [
              126.988642,
              37.426724
            ],
            [
              127.000096,
              37.432169
            ],
            [
              127.010821,
              37.438478
            ],
            [
              127.020715,
              37.44559
            ],
            [
              127.029682,
              37.453437
            ],
            [
              127.037637,
              37.461944
            ],
            [
              127.044502,
              37.471028
            ],
            [
              127.050211,
              37.480601
            ],
            [
              127.054709,
              37.490573
            ],
            [
              127.057954,
              37.500846
            ],
            [
              127.059913,
              37.511322
            ],
            [
              127.060568,
              37.5219
            ]
          ]
        ]
      }
    },
    {
      "type": "Feature",
      "properties": {
        "hub": "Magok",
        "name": "마곡",
        "radius_km": 12,
        "note": "대중교통 40분 근사치 (직선거리 12km 원형 버퍼)"
      },
      "geometry": {
        "type": "Polygon",
        "coordinates": [
          [
            [
              126.965635,
              37.5585
            ],
            [
              126.96498,
              37.569078
            ],
            [
              126.963019,
              37.579554
            ],
            [
              126.959773,
              37.589827
            ],
            [
              126.955272,
              37.599799
            ],
            [
              126.94956,
              37.609372
            ],
            [
              126.942692,
              37.618456
            ],
            [
              126.934734,
              37.626963
            ],
            [
              126.925762,
              37.63481
            ],
            [
              126.915863,
              37.641922
            ],
            [
              126.905133,
              37.648231
            ],
            [
              126.893674,
              37.653676
            ],
            [
              126.881597,
              37.658204
            ],
            [
              126.869018,
              37.661772
            ],
            [
              126.856059,
              37.664345
            ],
            [
              126.842844,
              37.665899
            ],
            [
              126.8295,
              37.666419
            ],
            [
              126.816156,
              37.665899
            ],
            [
              126.802941,
              37.664345
            ],
            [
              126.789982,
              37.661772
            ],
            [
              126.777403,
              37.658204
            ],
            [
              126.765326,
              37.653676
            ],
            [
              126.753867,
              37.648231
            ],
            [
              126.743137,
              37.641922
            ],
            [
              126.733238,
              37.63481
            ],
            [
              126.724266,
              37.626963
            ],
            [
              126.716308,
              37.618456
            ],
            [
              126.70944,
              37.609372
            ],
            [
              126.703728,
              37.599799
            ],
            [
              126.699227,
              37.589827
            ],
            [
              126.695981,
              37.579554
            ],
            [
              126.69402,
              37.569078
            ],
            [
              126.693365,
              37.5585
            ],
            [
              126.69402,
              37.547922
            ],
            [
              126.695981,
              37.537446
            ],
            [
              126.699227,
              37.527173
            ],
            [
              126.703728,
              37.517201
            ],
            [
              126.70944,
              37.507628
            ],
            [
              126.716308,
              37.498544
            ],
            [
              126.724266,
              37.490037
            ],
            [
              126.733238,
              37.48219
            ],
            [
              126.743137,
              37.475078
            ],
            [
              126.753867,
              37.468769
            ],
            [
              126.765326,
              37.463324
            ],
            [
              126.777403,
              37.458796
            ],
            [
              126.789982,
              37.455228
            ],
            [
              126.802941,
              37.452655
            ],
            [
              126.816156,
              37.451101
            ],
            [
              126.8295,
              37.450581
            ],
            [
              126.842844,
              37.451101
            ],
            [
              126.856059,
              37.452655
            ],
            [
              126.869018,
              37.455228
            ],
            [
              126.881597,
              37.458796
            ],
            [
              126.893674,
              37.463324
            ],
            [
              126.905133,
              37.468769
            ],
            [
              126.915863,
              37.475078
            ],
            [
              126.925762,
              37.48219
            ],
            [
              126.934734,
              37.490037
            ],
            [
              126.942692,
              37.498544
            ],
            [
              126.94956,
              37.507628
            ],
            [
              126.955272,
              37.517201
            ],
            [
              126.959773,
              37.527173
            ],
            [
              126.963019,
              37.537446
            ],
            [
              126.96498,
              37.547922
            ],
            [
              126.965635,
              37.5585
            ]
          ]
        ]
      }
    },
    {
      "type": "Feature",
      "properties": {
        "hub": "Seongsu",
        "name": "성수",
        "radius_km": 12,
        "note": "대중교통 40분 근사치 (직선거리 12km 원형 버퍼)"
      },
      "geometry": {
        "type": "Polygon",
        "coordinates": [
          [
            [
              127.19291,
              37.5445
            ],
            [
              127.192254,
              37.555078
            ],
            [
              127.190294,
              37.565554
            ],
            [
              127.187049,
              37.575827
            ],
            [
              127.182549,
              37.585799
            ],
            [
              127.176838,
              37.595372
            ],
            [
              127.169971,
              37.604456
            ],
            [
              127.162014,
              37.612963
            ],
            [
              127.153044,
              37.62081
            ],
            [
              127.143147,
              37.627922
            ],
            [
              127.132418,
              37.634231
            ],
            [
              127.120962,
              37.639676
            ],
            [
              127.108887,
              37.644204
            ],
            [
              127.096311,
              37.647772
            ],
            [
              127.083354,
              37.650345
            ],
            [
              127.070141,
              37.651899
            ],
            [
              127.0568,
              37.652419
            ],
            [
              127.043459,
              37.651899
            ],
            [
              127.030246,
              37.650345
            ],
            [
              127.017289,
              37.647772
            ],
            [
              127.004713,
              37.644204
            ],
            [
              126.992638,
              37.639676
            ],
            [
              126.981182,
              37.634231
            ],
            [
              126.970453,
              37.627922
            ],
            [
              126.960556,
              37.62081
            ],
            [
              126.951586,
              37.612963
            ],
            [
              126.943629,
              37.604456
            ],
            [
              126.936762,
              37.595372
            ],
            [
              126.931051,
              37.585799
            ],
            [
              126.926551,
              37.575827
            ],
            [
              126.923306,
              37.565554
            ],
            [
              126.921346,
              37.555078
            ],
            [
              126.92069,
              37.5445
            ],
            [
              126.921346,
              37.533922
            ],
            [
              126.923306,
              37.523446
            ],
            [
              126.926551,
              37.513173
            ],
            [
              126.931051,
              37.503201
            ],
            [
              126.936762,
              37.493628
            ],
            [
              126.943629,
              37.484544
            ],
            [
              126.951586,
              37.476037
            ],
            [
              126.960556,
              37.46819
            ],
            [
              126.970453,
              37.461078
            ],
            [
              126.981182,
              37.454769
            ],
            [
              126.992638,
              37.449324
            ],
            [
              127.004713,
              37.444796
            ],
            [
              127.017289,
              37.441228
            ],
            [
              127.030246,
              37.438655
            ],
            [
              127.043459,
              37.437101
            ],
            [
              127.0568,
              37.436581
            ],
            [
              127.070141,
              37.437101
            ],
            [
              127.083354,
              37.438655
            ],
            [
              127.096311,
              37.441228
            ],
            [
              127.108887,
              37.444796
            ],
            [
              127.120962,
              37.449324
            ],
            [
              127.132418,
              37.454769
            ],
            [
              127.143147,
              37.461078
            ],
            [
              127.153044,
              37.46819
            ],
            [
              127.162014,
              37.476037
            ],
            [
              127.169971,
              37.484544
            ],
            [
              127.176838,
              37.493628
            ],
            [
              127.182549,
              37.503201
            ],
            [
              127.187049,
              37.513173
            ],
            [
              127.190294,
              37.523446
            ],
            [
              127.192254,
              37.533922
            ],
            [
              127.19291,
              37.5445
            ]
          ]
        ]
      }
    },
    {
      "type": "Feature",
      "properties": {
        "hub": "Pangyo",
        "name": "판교",
        "radius_km": 12,
        "note": "대중교통 40분 근사치 (직선거리 12km 원형 버퍼)"
      },
      "geometry": {
        "type": "Polygon",
        "coordinates": [
          [
            [
              127.245837,
              37.3944
            ],
            [
              127.245182,
              37.404978
            ],
            [
              127.243226,
              37.415454
            ],
            [
              127.239987,
              37.425727
            ],
            [
              127.235497,
              37.435699
            ],
            [
              127.229797,
              37.445272
            ],
            [
              127.222944,
              37.454356
            ],
            [
              127.215003,
              37.462863
            ],
            [
              127.206051,
              37.47071
            ],
            [
              127.196174,
              37.477822
            ],
            [
              127.185467,
              37.484131
            ],
            [
              127.174033,
              37.489576
            ],
            [
              127.161982,
              37.494104
            ],
            [
              127.149431,
              37.497672
            ],
            [
              127.1365,
              37.500245
            ],
            [
              127.123314,
              37.501799
            ],
            [
              127.11,
              37.502319
            ],
            [
              127.096686,
              37.501799
            ],
            [
              127.0835,
              37.500245
            ],
            [
              127.070569,
              37.497672
            ],
            [
              127.058018,
              37.494104
            ],
            [
              127.045967,
              37.489576
            ],
            [
              127.034533,
              37.484131
            ],
            [
              127.023826,
              37.477822
            ],
            [
              127.013949,
              37.47071
            ],
            [
              127.004997,
              37.462863
            ],
            [
              126.997056,
              37.454356
            ],
            [
              126.990203,
              37.445272
            ],
            [
              126.984503,
              37.435699
            ],
            [
              126.980013,
              37.425727
            ],
            [
              126.976774,
              37.415454
            ],
            [
              126.974818,
              37.404978
            ],
            [
              126.974163,
              37.3944
            ],
            [
              126.974818,
              37.383822
            ],
            [
              126.976774,
              37.373346
            ],
            [
              126.980013,
              37.363073
            ],
            [
              126.984503,
              37.353101
            ],
            [
              126.990203,
              37.343528
            ],
            [
              126.997056,
              37.334444
            ],
            [
              127.004997,
              37.325937
            ],
            [
              127.013949,
              37.31809
            ],
            [
              127.023826,
              37.310978
            ],
            [
              127.034533,
              37.304669
            ],
            [
              127.045967,
              37.299224
            ],
            [
              127.058018,
              37.294696
            ],
            [
              127.070569,
              37.291128
            ],
            [
              127.0835,
              37.288555
            ],
            [
              127.096686,
              37.287001
            ],
            [
              127.11,
              37.286481
            ],
            [
              127.123314,
              37.287001
            ],
            [
              127.1365,
              37.288555
            ],
            [
              127.149431,
              37.291128
            ],
            [
              127.161982,
              37.294696
            ],
            [
              127.174033,
              37.299224
            ],
            [
              127.185467,
              37.304669
            ],
            [
              127.196174,
              37.310978
            ],
            [
              127.206051,
              37.31809
            ],
            [
              127.215003,
              37.325937
            ],
            [
              127.222944,
              37.334444
            ],
            [
              127.229797,
              37.343528
            ],
            [
              127.235497,
              37.353101
            ],
            [
              127.239987,
              37.363073
            ],
            [
              127.243226,
              37.373346
            ],
            [
              127.245182,
              37.383822
            ],
            [
              127.245837,
              37.3944
            ]
          ]
        ]
      }
    },
    {
      "type": "Feature",
      "properties": {
        "hub": "Yongsan",
        "name": "용산",
        "radius_km": 12,
        "note": "대중교통 40분 근사치 (직선거리 12km 원형 버퍼)"
      },
      "geometry": {
        "type": "Polygon",
        "coordinates": [
          [
            [
              127.100483,
              37.5298
            ],
            [
              127.099827,
              37.540378
            ],
            [
              127.097868,
              37.550854
            ],
            [
              127.094623,
              37.561127
            ],
            [
              127.090124,
              37.571099
            ],
            [
              127.084414,
              37.580672
            ],
            [
              127.077549,
              37.589756
            ],
            [
              127.069593,
              37.598263
            ],
            [
              127.060625,
              37.60611
            ],
            [
              127.05073,
              37.613222
            ],
            [
              127.040004,
              37.619531
            ],
            [
              127.028549,
              37.624976
            ],
            [
              127.016477,
              37.629504
            ],
            [
              127.003903,
              37.633072
            ],
            [
              126.990948,
              37.635645
            ],
            [
              126.977738,
              37.637199
            ],
            [
              126.9644,
              37.637719
            ],
            [
              126.951062,
              37.637199
            ],
            [
              126.937852,
              37.635645
            ],
            [
              126.924897,
              37.633072
            ],
            [
              126.912323,
              37.629504
            ],
            [
              126.900251,
              37.624976
            ],
            [
              126.888796,
              37.619531
            ],
            [
              126.87807,
              37.613222
            ],
            [
              126.868175,
              37.60611
            ],
            [
              126.859207,
              37.598263
            ],
            [
              126.851251,
              37.589756
            ],
            [
              126.844386,
              37.580672
            ],
            [
              126.838676,
              37.571099
            ],
            [
              126.834177,
              37.561127
            ],
            [
              126.830932,
              37.550854
            ],
            [
              126.828973,
              37.540378
            ],
            [
              126.828317,
              37.5298
            ],
            [
              126.828973,
              37.519222
            ],
            [
              126.830932,
              37.508746
            ],
            [
              126.834177,
              37.498473
            ],
            [
              126.838676,
              37.488501
            ],
            [
              126.844386,
              37.478928
            ],
            [
              126.851251,
              37.469844
            ],
            [
              126.859207,
              37.461337
            ],
            [
              126.868175,
              37.45349
            ],
            [
              126.87807,
              37.446378
            ],
            [
              126.888796,
              37.440069
            ],
            [
              126.900251,
              37.434624
            ],
            [
              126.912323,
              37.430096
            ],
            [
              126.924897,
              37.426528
            ],
            [
              126.937852,
              37.423955
            ],
            [
              126.951062,
              37.422401
            ],
            [
              126.9644,
              37.421881
            ],
            [
              126.977738,
              37.422401
            ],
            [
              126.990948,
              37.423955
            ],
            [
              127.003903,
              37.426528
            ],
            [
              127.016477,
              37.430096
            ],
            [
              127.028549,
              37.434624
            ],
            [
              127.040004,
              37.440069
            ],
            [
              127.05073,
              37.446378
            ],
            [
              127.060625,
              37.45349
            ],
            [
              127.069593,
              37.461337
            ],
            [
              127.077549,
              37.469844
            ],
            [
              127.084414,
              37.478928
            ],
            [
              127.090124,
              37.488501
            ],
            [
              127.094623,
              37.498473
            ],
            [
              127.097868,
              37.508746
            ],
            [
              127.099827,
              37.519222
            ],
            [
              127.100483,
              37.5298
            ]
          ]
        ]
      }
    },
    {
      "type": "Feature",
      "properties": {
        "hub": "Sangam",
        "name": "상암(DMC)",
        "radius_km": 12,
        "note": "대중교통 40분 근사치 (직선거리 12km 원형 버퍼)"
      },
      "geometry": {
        "type": "Polygon",
        "coordinates": [
          [
            [
              127.02578,
              37.5828
            ],
            [
              127.025124,
              37.593378
            ],
            [
              127.023163,
              37.603854
            ],
            [
              127.019916,
              37.614127
            ],
            [
              127.015414,
              37.624099
            ],
            [
              127.0097,
              37.633672
            ],
            [
              127.002829,
              37.642756
            ],
            [
              126.994868,
              37.651263
            ],
            [
              126.985893,
              37.65911
            ],
            [
              126.975991,
              37.666222
            ],
            [
              126.965257,
              37.672531
            ],
            [
              126.953795,
              37.677976
            ],
            [
              126.941714,
              37.682504
            ],
            [
              126.929131,
              37.686072
            ],
            [
              126.916167,
              37.688645
            ],
            [
              126.902948,
              37.690199
            ],
            [
              126.8896,
              37.690719
            ],
            [
              126.876252,
              37.690199
            ],
            [
              126.863033,
              37.688645
            ],
            [
              126.850069,
              37.686072
            ],
            [
              126.837486,
              37.682504
            ],
            [
              126.825405,
              37.677976
            ],
            [
              126.813943,
              37.672531
            ],
            [
              126.803209,
              37.666222
            ],
            [
              126.793307,
              37.65911
            ],
            [
              126.784332,
              37.651263
            ],
            [
              126.776371,
              37.642756
            ],
            [
              126.7695,
              37.633672
            ],
            [
              126.763786,
              37.624099
            ],
            [
              126.759284,
              37.614127
            ],
            [
              126.756037,
              37.603854
            ],
            [
              126.754076,
              37.593378
            ],
            [
              126.75342,
              37.5828
            ],
            [
              126.754076,
              37.572222
            ],
            [
              126.756037,
              37.561746
            ],
            [
              126.759284,
              37.551473
            ],
            [
              126.763786,
              37.541501
            ],
            [
              126.7695,
              37.531928
            ],
            [
              126.776371,
              37.522844
            ],
            [
              126.784332,
              37.514337
            ],
            [
              126.793307,
              37.50649
            ],
            [
              126.803209,
              37.499378
            ],
            [
              126.813943,
              37.493069
            ],
            [
              126.825405,
              37.487624
            ],
            [
              126.837486,
              37.483096
            ],
            [
              126.850069,
              37.479528
            ],
            [
              126.863033,
              37.476955
            ],
            [
              126.876252,
              37.475401
            ],
            [
              126.8896,
              37.474881
            ],
            [
              126.902948,
              37.475401
            ],
            [
              126.916167,
              37.476955
            ],
            [
              126.929131,
              37.479528
            ],
            [
              126.941714,
              37.483096
            ],
            [
              126.953795,
              37.487624
            ],
            [
              126.965257,
              37.493069
            ],
            [
              126.975991,
              37.499378
            ],
            [
              126.985893,
              37.50649
            ],
            [
              126.994868,
              37.514337
            ],
            [
              127.002829,
              37.522844
            ],
            [
              127.0097,
              37.531928
            ],
            [
              127.015414,
              37.541501
            ],
            [
              127.019916,
              37.551473
            ],
            [
              127.023163,
              37.561746
            ],
            [
              127.025124,
              37.572222
            ],
            [
              127.02578,
              37.5828
            ]
          ]
        ]
      }
    }
  ]
}